start=new Date('2022-03-23T00:00:00.000Z').valueOf();
sats=[{"COUNTRY_CODE":"US","EPHEMERIS_TYPE":"0","MEAN_ELEMENT_THEORY":"SGP4","OBJECT_TYPE":"PAYLOAD","MEAN_ANOMALY":"296.8488","MEAN_MOTION_DDOT":"0.0000000000000","CLASSIFICATION_TYPE":"U","TLE_LINE1":"1 46689U 20073V   22081.86154297  .00001201  00000-0  99493-4 0  9992","APOAPSIS":"548.447","REF_FRAME":"TEME","REV_AT_EPOCH":"7994","OBJECT_ID":"2020-073V","ARG_OF_PERICENTER":"63.2684","MEAN_MOTION_DOT":"0.00001201","DECAY_DATE":null,"GP_ID":"199428409","SITE":"AFETR","EPOCH":"2022-03-22T20:40:37.312608","CENTER_NAME":"EARTH","PERIAPSIS":"545.968","LAUNCH_DATE":"2020-10-18","BSTAR":"0.00009949300000","NORAD_CAT_ID":"46689","RCS_SIZE":"LARGE","TIME_SYSTEM":"UTC","PERIOD":"95.592","SEMIMAJOR_AXIS":"6925.342","INCLINATION":"53.0526","ELEMENT_SET_NO":"999","ECCENTRICITY":"0.00017900","OBJECT_NAME":"STARLINK-1788","FILE":"3370190","MEAN_MOTION":"15.06402017","TLE_LINE2":"2 46689  53.0526 276.1830 0001790  63.2684 296.8488 15.06402017 79949","RA_OF_ASC_NODE":"276.1830"},{"COUNTRY_CODE":"US","EPHEMERIS_TYPE":"0","MEAN_ELEMENT_THEORY":"SGP4","OBJECT_TYPE":"PAYLOAD","CLASSIFICATION_TYPE":"U","TLE_LINE1":"1 46690U 20073W   22081.72931011  .00000473  00000-0  50655-4 0  9993","MEAN_MOTION_DDOT":"0.0000000000000","MEAN_ANOMALY":"277.2232","APOAPSIS":"548.117","REF_FRAME":"TEME","REV_AT_EPOCH":"7902","ARG_OF_PERICENTER":"82.8901","MEAN_MOTION_DOT":"0.00000473","OBJECT_ID":"2020-073W","DECAY_DATE":null,"GP_ID":"199429160","SITE":"AFETR","CENTER_NAME":"EARTH","EPOCH":"2022-03-22T17:30:12.393504","PERIAPSIS":"546.364","BSTAR":"0.00005065500000","LAUNCH_DATE":"2020-10-18","NORAD_CAT_ID":"46690","TIME_SYSTEM":"UTC","RCS_SIZE":"LARGE","PERIOD":"95.593","ELEMENT_SET_NO":"999","INCLINATION":"53.0547","SEMIMAJOR_AXIS":"6925.376","OBJECT_NAME":"STARLINK-1789","ECCENTRICITY":"0.00012660","MEAN_MOTION":"15.06391156","FILE":"3370190","RA_OF_ASC_NODE":"251.7564","TLE_LINE2":"2 46690  53.0547 251.7564 0001266  82.8901 277.2232 15.06391156 79024"},{"SEMIMAJOR_AXIS":"6925.377","ELEMENT_SET_NO":"999","INCLINATION":"53.0526","PERIOD":"95.593","OBJECT_NAME":"STARLINK-1790","ECCENTRICITY":"0.00016360","TLE_LINE2":"2 46691  53.0526 262.6746 0001636  62.8677 297.2479 15.06390670 78859","RA_OF_ASC_NODE":"262.6746","FILE":"3369829","MEAN_MOTION":"15.06390670","PERIAPSIS":"546.109","EPOCH":"2022-03-22T12:42:15.920352","CENTER_NAME":"EARTH","LAUNCH_DATE":"2020-10-18","BSTAR":"0.00002281300000","TIME_SYSTEM":"UTC","RCS_SIZE":"LARGE","NORAD_CAT_ID":"46691","REV_AT_EPOCH":"7885","REF_FRAME":"TEME","OBJECT_ID":"2020-073X","ARG_OF_PERICENTER":"62.8677","MEAN_MOTION_DOT":"0.00000058","DECAY_DATE":null,"SITE":"AFETR","GP_ID":"199396644","EPHEMERIS_TYPE":"0","COUNTRY_CODE":"US","MEAN_ELEMENT_THEORY":"SGP4","OBJECT_TYPE":"PAYLOAD","APOAPSIS":"548.375","MEAN_MOTION_DDOT":"0.0000000000000","MEAN_ANOMALY":"297.2479","CLASSIFICATION_TYPE":"U","TLE_LINE1":"1 46691U 20073X   22081.52935093  .00000058  00000-0  22813-4 0  9990"},{"OBJECT_NAME":"STARLINK-1791","ECCENTRICITY":"0.00016800","SEMIMAJOR_AXIS":"6925.349","ELEMENT_SET_NO":"999","INCLINATION":"53.0541","PERIOD":"95.592","TLE_LINE2":"2 46692  53.0541 276.2295 0001680  70.9430 289.1741 15.06399950 78697","RA_OF_ASC_NODE":"276.2295","FILE":"3370190","MEAN_MOTION":"15.06399950","PERIAPSIS":"546.050","EPOCH":"2022-03-22T20:19:23.493216","CENTER_NAME":"EARTH","RCS_SIZE":"LARGE","TIME_SYSTEM":"UTC","NORAD_CAT_ID":"46692","LAUNCH_DATE":"2020-10-18","BSTAR":"0.00009128800000","OBJECT_ID":"2020-073Y","MEAN_MOTION_DOT":"0.00001078","ARG_OF_PERICENTER":"70.9430","REV_AT_EPOCH":"7869","REF_FRAME":"TEME","SITE":"AFETR","GP_ID":"199428161","DECAY_DATE":null,"MEAN_ELEMENT_THEORY":"SGP4","EPHEMERIS_TYPE":"0","COUNTRY_CODE":"US","APOAPSIS":"548.377","MEAN_MOTION_DDOT":"0.0000000000000","MEAN_ANOMALY":"289.1741","TLE_LINE1":"1 46692U 20073Y   22081.84679969  .00001078  00000-0  91288-4 0  9998","CLASSIFICATION_TYPE":"U","OBJECT_TYPE":"PAYLOAD"},{"MEAN_ELEMENT_THEORY":"SGP4","COUNTRY_CODE":"US","EPHEMERIS_TYPE":"0","TLE_LINE1":"1 46693U 20073Z   22081.79841861  .00000866  00000-0  77022-4 0  9999","CLASSIFICATION_TYPE":"U","MEAN_MOTION_DDOT":"0.0000000000000","MEAN_ANOMALY":"297.0032","APOAPSIS":"548.399","OBJECT_TYPE":"PAYLOAD","ARG_OF_PERICENTER":"63.1134","MEAN_MOTION_DOT":"0.00000866","OBJECT_ID":"2020-073Z","REV_AT_EPOCH":"7889","REF_FRAME":"TEME","GP_ID":"199428910","SITE":"AFETR","DECAY_DATE":null,"CENTER_NAME":"EARTH","EPOCH":"2022-03-22T19:09:43.367904","PERIAPSIS":"546.002","NORAD_CAT_ID":"46693","RCS_SIZE":"LARGE","TIME_SYSTEM":"UTC","BSTAR":"0.00007702200000","LAUNCH_DATE":"2020-10-18","ECCENTRICITY":"0.00017310","OBJECT_NAME":"STARLINK-1792","PERIOD":"95.592","INCLINATION":"53.0547","ELEMENT_SET_NO":"999","SEMIMAJOR_AXIS":"6925.336","MEAN_MOTION":"15.06404254","FILE":"3370190","RA_OF_ASC_NODE":"261.4558","TLE_LINE2":"2 46693  53.0547 261.4558 0001731  63.1134 297.0032 15.06404254 78891"},{"BSTAR":"0.00002529000000","LAUNCH_DATE":"2020-10-18","TIME_SYSTEM":"UTC","RCS_SIZE":"LARGE","NORAD_CAT_ID":"46694","PERIAPSIS":"546.164","CENTER_NAME":"EARTH","EPOCH":"2022-03-22T13:22:03.653472","RA_OF_ASC_NODE":"242.5489","TLE_LINE2":"2 46694  53.0541 242.5489 0001505 131.4041 228.7078 15.06402508 79144","MEAN_MOTION":"15.06402508","FILE":"3369829","ELEMENT_SET_NO":"999","INCLINATION":"53.0541","SEMIMAJOR_AXIS":"6925.341","PERIOD":"95.592","ECCENTRICITY":"0.00015050","OBJECT_NAME":"STARLINK-1793","OBJECT_TYPE":"PAYLOAD","APOAPSIS":"548.248","TLE_LINE1":"1 46694U 20073AA  22081.55698673  .00000095  00000-0  25290-4 0  9999","CLASSIFICATION_TYPE":"U","MEAN_ANOMALY":"228.7078","MEAN_MOTION_DDOT":"0.0000000000000","EPHEMERIS_TYPE":"0","COUNTRY_CODE":"US","MEAN_ELEMENT_THEORY":"SGP4","DECAY_DATE":null,"SITE":"AFETR","GP_ID":"199396394","REV_AT_EPOCH":"7914","REF_FRAME":"TEME","MEAN_MOTION_DOT":"0.00000095","ARG_OF_PERICENTER":"131.4041","OBJECT_ID":"2020-073AA"},{"TLE_LINE2":"2 46696  53.0554 241.8568 0001756  54.4104 305.7049 15.06394996 79169","RA_OF_ASC_NODE":"241.8568","FILE":"3370190","MEAN_MOTION":"15.06394996","ECCENTRICITY":"0.00017560","OBJECT_NAME":"STARLINK-1795","SEMIMAJOR_AXIS":"6925.364","ELEMENT_SET_NO":"999","INCLINATION":"53.0554","PERIOD":"95.592","TIME_SYSTEM":"UTC","RCS_SIZE":"LARGE","NORAD_CAT_ID":"46696","LAUNCH_DATE":"2020-10-18","BSTAR":"0.00005816800000","PERIAPSIS":"546.013","EPOCH":"2022-03-22T16:59:40.763616","CENTER_NAME":"EARTH","SITE":"AFETR","GP_ID":"199427912","DECAY_DATE":null,"OBJECT_ID":"2020-073AC","MEAN_MOTION_DOT":"0.00000585","ARG_OF_PERICENTER":"54.4104","REF_FRAME":"TEME","REV_AT_EPOCH":"7916","APOAPSIS":"548.445","MEAN_MOTION_DDOT":"0.0000000000000","MEAN_ANOMALY":"305.7049","CLASSIFICATION_TYPE":"U","TLE_LINE1":"1 46696U 20073AC  22081.70811069  .00000585  00000-0  58168-4 0  9998","OBJECT_TYPE":"PAYLOAD","MEAN_ELEMENT_THEORY":"SGP4","EPHEMERIS_TYPE":"0","COUNTRY_CODE":"US"},{"EPOCH":"2022-03-22T13:35:19.919328","CENTER_NAME":"EARTH","PERIAPSIS":"546.158","NORAD_CAT_ID":"46698","RCS_SIZE":"LARGE","TIME_SYSTEM":"UTC","LAUNCH_DATE":"2020-10-18","BSTAR":"0.00005371200000","ECCENTRICITY":"0.00015270","OBJECT_NAME":"STARLINK-1797","PERIOD":"95.592","SEMIMAJOR_AXIS":"6925.350","ELEMENT_SET_NO":"999","INCLINATION":"53.0538","FILE":"3370190","MEAN_MOTION":"15.06399486","TLE_LINE2":"2 46698  53.0538 262.4934 0001527  76.0736 284.0423 15.06399486 78866","RA_OF_ASC_NODE":"262.4934","MEAN_ELEMENT_THEORY":"SGP4","COUNTRY_CODE":"US","EPHEMERIS_TYPE":"0","MEAN_MOTION_DDOT":"0.0000000000000","MEAN_ANOMALY":"284.0423","CLASSIFICATION_TYPE":"U","TLE_LINE1":"1 46698U 20073AE  22081.56620277  .00000519  00000-0  53712-4 0  9990","APOAPSIS":"548.273","OBJECT_TYPE":"PAYLOAD","OBJECT_ID":"2020-073AE","MEAN_MOTION_DOT":"0.00000519","ARG_OF_PERICENTER":"76.0736","REV_AT_EPOCH":"7886","REF_FRAME":"TEME","GP_ID":"199427661","SITE":"AFETR","DECAY_DATE":null},{"DECAY_DATE":null,"GP_ID":"199428410","SITE":"AFETR","REF_FRAME":"TEME","REV_AT_EPOCH":"7889","ARG_OF_PERICENTER":"65.2249","MEAN_MOTION_DOT":"0.00001661","OBJECT_ID":"2020-073AF","OBJECT_TYPE":"PAYLOAD","TLE_LINE1":"1 46699U 20073AF  22081.76893816  .00001661  00000-0  13032-3 0  9993","CLASSIFICATION_TYPE":"U","MEAN_MOTION_DDOT":"0.0000000000000","MEAN_ANOMALY":"294.8883","APOAPSIS":"548.129","COUNTRY_CODE":"US","EPHEMERIS_TYPE":"0","MEAN_ELEMENT_THEORY":"SGP4","MEAN_MOTION":"15.06412627","FILE":"3370190","RA_OF_ASC_NODE":"261.5987","TLE_LINE2":"2 46699  53.0523 261.5987 0001378  65.2249 294.8883 15.06412627 78897","PERIOD":"95.591","INCLINATION":"53.0523","ELEMENT_SET_NO":"999","SEMIMAJOR_AXIS":"6925.310","OBJECT_NAME":"STARLINK-1799","ECCENTRICITY":"0.00013780","BSTAR":"0.00013032000000","LAUNCH_DATE":"2020-10-18","NORAD_CAT_ID":"46699","RCS_SIZE":"LARGE","TIME_SYSTEM":"UTC","CENTER_NAME":"EARTH","EPOCH":"2022-03-22T18:27:16.257024","PERIAPSIS":"546.221"},{"COUNTRY_CODE":"US","EPHEMERIS_TYPE":"0","MEAN_ELEMENT_THEORY":"SGP4","OBJECT_TYPE":"PAYLOAD","MEAN_MOTION_DDOT":"0.0000000000000","MEAN_ANOMALY":"298.3139","TLE_LINE1":"1 46700U 20073AG  22081.50769072  .00002457  00000-0  18381-3 0  9990","CLASSIFICATION_TYPE":"U","APOAPSIS":"548.252","REV_AT_EPOCH":"7864","REF_FRAME":"TEME","OBJECT_ID":"2020-073AG","ARG_OF_PERICENTER":"61.8002","MEAN_MOTION_DOT":"0.00002457","DECAY_DATE":null,"GP_ID":"199395900","SITE":"AFETR","EPOCH":"2022-03-22T12:11:04.478208","CENTER_NAME":"EARTH","PERIAPSIS":"546.166","LAUNCH_DATE":"2020-10-18","BSTAR":"0.00018381000000","NORAD_CAT_ID":"46700","RCS_SIZE":"LARGE","TIME_SYSTEM":"UTC","PERIOD":"95.592","SEMIMAJOR_AXIS":"6925.344","INCLINATION":"53.0543","ELEMENT_SET_NO":"999","ECCENTRICITY":"0.00015060","OBJECT_NAME":"STARLINK-1800","FILE":"3369829","MEAN_MOTION":"15.06401427","TLE_LINE2":"2 46700  53.0543 277.7539 0001506  61.8002 298.3139 15.06401427 78648","RA_OF_ASC_NODE":"277.7539"}];
